CCSDS_OMM_VERS = 2.0
CREATION_DATE  = 
ORIGINATOR     = 

OBJECT_NAME    = ERS-1
OBJECT_ID      = 1991-050A
CENTER_NAME    = EARTH
REF_FRAME      = TEME
TIME_SYSTEM    = UTC
MEAN_ELEMENT_THEORY = SGP/SGP4

EPOCH          = 2026-03-17T18:15:15.439104
MEAN_MOTION    = 14.39455446
ECCENTRICITY   = .0032069
INCLINATION    = 98.7875
RA_OF_ASC_NODE = 95.1980
ARG_OF_PERICENTER = 176.4037
MEAN_ANOMALY   = 183.7387

EPHEMERIS_TYPE = 0
CLASSIFICATION_TYPE = U
NORAD_CAT_ID   = 21574
ELEMENT_SET_NO = 999
REV_AT_EPOCH   = 81689
BSTAR          = .10056E-3
MEAN_MOTION_DOT = .269E-5
MEAN_MOTION_DDOT = 0

CCSDS_OMM_VERS = 2.0
CREATION_DATE  = 
ORIGINATOR     = 

OBJECT_NAME    = ARIANE 40 R/B
OBJECT_ID      = 1991-050F
CENTER_NAME    = EARTH
REF_FRAME      = TEME
TIME_SYSTEM    = UTC
MEAN_ELEMENT_THEORY = SGP/SGP4

EPOCH          = 2026-03-17T20:40:50.079072
MEAN_MOTION    = 14.42899544
ECCENTRICITY   = .0004105
INCLINATION    = 98.1994
RA_OF_ASC_NODE = 128.7908
ARG_OF_PERICENTER = 63.4225
MEAN_ANOMALY   = 296.7386

EPHEMERIS_TYPE = 0
CLASSIFICATION_TYPE = U
NORAD_CAT_ID   = 21610
ELEMENT_SET_NO = 999
REV_AT_EPOCH   = 82017
BSTAR          = .91187E-4
MEAN_MOTION_DOT = .263E-5
MEAN_MOTION_DDOT = 0

CCSDS_OMM_VERS = 2.0
CREATION_DATE  = 
ORIGINATOR     = 

OBJECT_NAME    = INTERCOSMOS 25
OBJECT_ID      = 1991-086A
CENTER_NAME    = EARTH
REF_FRAME      = TEME
TIME_SYSTEM    = UTC
MEAN_ELEMENT_THEORY = SGP/SGP4

EPOCH          = 2026-03-17T13:58:57.615456
MEAN_MOTION    = 12.12028288
ECCENTRICITY   = .14868314
INCLINATION    = 82.6040
RA_OF_ASC_NODE = 305.2378
ARG_OF_PERICENTER = 99.9293
MEAN_ANOMALY   = 277.2314

EPHEMERIS_TYPE = 0
CLASSIFICATION_TYPE = U
NORAD_CAT_ID   = 21819
ELEMENT_SET_NO = 999
REV_AT_EPOCH   = 49764
BSTAR          = .30850165E-3
MEAN_MOTION_DOT = .1611E-4
MEAN_MOTION_DDOT = 0

CCSDS_OMM_VERS = 2.0
CREATION_DATE  = 
ORIGINATOR     = 

OBJECT_NAME    = SL-8 R/B
OBJECT_ID      = 1992-008B
CENTER_NAME    = EARTH
REF_FRAME      = TEME
TIME_SYSTEM    = UTC
MEAN_ELEMENT_THEORY = SGP/SGP4

EPOCH          = 2026-03-17T21:03:05.662368
MEAN_MOTION    = 13.75969652
ECCENTRICITY   = .0035828
INCLINATION    = 82.9222
RA_OF_ASC_NODE = 261.6859
ARG_OF_PERICENTER = 111.1542
MEAN_ANOMALY   = 4.6037

EPHEMERIS_TYPE = 0
CLASSIFICATION_TYPE = U
NORAD_CAT_ID   = 21876
ELEMENT_SET_NO = 999
REV_AT_EPOCH   = 71054
BSTAR          = -.13305E-4
MEAN_MOTION_DOT = .3E-7
MEAN_MOTION_DDOT = 0

CCSDS_OMM_VERS = 2.0
CREATION_DATE  = 
ORIGINATOR     = 

OBJECT_NAME    = SL-8 R/B
OBJECT_ID      = 1992-020B
CENTER_NAME    = EARTH
REF_FRAME      = TEME
TIME_SYSTEM    = UTC
MEAN_ELEMENT_THEORY = SGP/SGP4

EPOCH          = 2026-03-17T15:20:59.971200
MEAN_MOTION    = 13.75550091
ECCENTRICITY   = .00275287
INCLINATION    = 82.9324
RA_OF_ASC_NODE = 147.8596
ARG_OF_PERICENTER = 275.5574
MEAN_ANOMALY   = 238.5416

EPHEMERIS_TYPE = 0
CLASSIFICATION_TYPE = U
NORAD_CAT_ID   = 21938
ELEMENT_SET_NO = 999
REV_AT_EPOCH   = 70222
BSTAR          = .4183002E-4
MEAN_MOTION_DOT = .55E-6
MEAN_MOTION_DDOT = 0

CCSDS_OMM_VERS = 2.0
CREATION_DATE  = 
ORIGINATOR     = 

OBJECT_NAME    = USA 81
OBJECT_ID      = 1992-023A
CENTER_NAME    = EARTH
REF_FRAME      = TEME
TIME_SYSTEM    = UTC
MEAN_ELEMENT_THEORY = SGP/SGP4

EPOCH          = 2026-03-17T09:54:43.678656
MEAN_MOTION    = 14.32370485
ECCENTRICITY   = .00022574
INCLINATION    = 85.0070
RA_OF_ASC_NODE = 126.9851
ARG_OF_PERICENTER = 71.7173
MEAN_ANOMALY   = 288.4266

EPHEMERIS_TYPE = 0
CLASSIFICATION_TYPE = U
NORAD_CAT_ID   = 21949
ELEMENT_SET_NO = 999
REV_AT_EPOCH   = 9589
BSTAR          = .56761003E-4
MEAN_MOTION_DOT = .173E-5
MEAN_MOTION_DDOT = 0

CCSDS_OMM_VERS = 2.0
CREATION_DATE  = 
ORIGINATOR     = 

OBJECT_NAME    = COSMOS 2219
OBJECT_ID      = 1992-076A
CENTER_NAME    = EARTH
REF_FRAME      = TEME
TIME_SYSTEM    = UTC
MEAN_ELEMENT_THEORY = SGP/SGP4

EPOCH          = 2026-03-17T20:50:02.386752
MEAN_MOTION    = 14.14093550
ECCENTRICITY   = .0018502
INCLINATION    = 71.0641
RA_OF_ASC_NODE = 0.9730
ARG_OF_PERICENTER = 195.6340
MEAN_ANOMALY   = 164.4214

EPHEMERIS_TYPE = 0
CLASSIFICATION_TYPE = U
NORAD_CAT_ID   = 22219
ELEMENT_SET_NO = 999
REV_AT_EPOCH   = 71953
BSTAR          = -.2815E-4
MEAN_MOTION_DOT = -.101E-5
MEAN_MOTION_DDOT = 0

CCSDS_OMM_VERS = 2.0
CREATION_DATE  = 
ORIGINATOR     = 

OBJECT_NAME    = SL-16 R/B
OBJECT_ID      = 1992-076B
CENTER_NAME    = EARTH
REF_FRAME      = TEME
TIME_SYSTEM    = UTC
MEAN_ELEMENT_THEORY = SGP/SGP4

EPOCH          = 2026-03-17T09:25:47.377344
MEAN_MOTION    = 14.16859685
ECCENTRICITY   = .00105786
INCLINATION    = 71.0006
RA_OF_ASC_NODE = 172.1483
ARG_OF_PERICENTER = 82.1541
MEAN_ANOMALY   = 343.8892

EPHEMERIS_TYPE = 0
CLASSIFICATION_TYPE = U
NORAD_CAT_ID   = 22220
ELEMENT_SET_NO = 999
REV_AT_EPOCH   = 72292
BSTAR          = .99466935E-4
MEAN_MOTION_DOT = .152E-5
MEAN_MOTION_DDOT = 0

CCSDS_OMM_VERS = 2.0
CREATION_DATE  = 
ORIGINATOR     = 

OBJECT_NAME    = COSMOS 2221
OBJECT_ID      = 1992-080A
CENTER_NAME    = EARTH
REF_FRAME      = TEME
TIME_SYSTEM    = UTC
MEAN_ELEMENT_THEORY = SGP/SGP4

EPOCH          = 2026-03-17T19:06:46.196064
MEAN_MOTION    = 14.96233078
ECCENTRICITY   = .001473
INCLINATION    = 82.5002
RA_OF_ASC_NODE = 271.3136
ARG_OF_PERICENTER = 160.2663
MEAN_ANOMALY   = 199.9132

EPHEMERIS_TYPE = 0
CLASSIFICATION_TYPE = U
NORAD_CAT_ID   = 22236
ELEMENT_SET_NO = 999
REV_AT_EPOCH   = 78200
BSTAR          = .15646E-3
MEAN_MOTION_DOT = .1794E-4
MEAN_MOTION_DDOT = 0

CCSDS_OMM_VERS = 2.0
CREATION_DATE  = 
ORIGINATOR     = 

OBJECT_NAME    = SL-16 R/B
OBJECT_ID      = 1992-093B
CENTER_NAME    = EARTH
REF_FRAME      = TEME
TIME_SYSTEM    = UTC
MEAN_ELEMENT_THEORY = SGP/SGP4

EPOCH          = 2026-03-17T20:47:51.943488
MEAN_MOTION    = 14.15447604
ECCENTRICITY   = .0006288
INCLINATION    = 71.0239
RA_OF_ASC_NODE = 347.1022
ARG_OF_PERICENTER = 285.3964
MEAN_ANOMALY   = 74.6464

EPHEMERIS_TYPE = 0
CLASSIFICATION_TYPE = U
NORAD_CAT_ID   = 22285
ELEMENT_SET_NO = 999
REV_AT_EPOCH   = 71431
BSTAR          = .9123E-4
MEAN_MOTION_DOT = .131E-5
MEAN_MOTION_DDOT = 0

CCSDS_OMM_VERS = 2.0
CREATION_DATE  = 
ORIGINATOR     = 

OBJECT_NAME    = COSMOS 2228
OBJECT_ID      = 1992-094A
CENTER_NAME    = EARTH
REF_FRAME      = TEME
TIME_SYSTEM    = UTC
MEAN_ELEMENT_THEORY = SGP/SGP4

EPOCH          = 2026-03-17T20:58:47.634816
MEAN_MOTION    = 14.97231939
ECCENTRICITY   = .0016603
INCLINATION    = 82.5168
RA_OF_ASC_NODE = 229.4732
ARG_OF_PERICENTER = 274.8848
MEAN_ANOMALY   = 85.0479

EPHEMERIS_TYPE = 0
CLASSIFICATION_TYPE = U
NORAD_CAT_ID   = 22286
ELEMENT_SET_NO = 999
REV_AT_EPOCH   = 77728
BSTAR          = .18621E-3
MEAN_MOTION_DOT = .2186E-4
MEAN_MOTION_DDOT = 0

CCSDS_OMM_VERS = 2.0
CREATION_DATE  = 
ORIGINATOR     = 

OBJECT_NAME    = SL-16 R/B
OBJECT_ID      = 1993-016B
CENTER_NAME    = EARTH
REF_FRAME      = TEME
TIME_SYSTEM    = UTC
MEAN_ELEMENT_THEORY = SGP/SGP4

EPOCH          = 2026-03-17T15:00:06.711552
MEAN_MOTION    = 14.15308302
ECCENTRICITY   = .00122607
INCLINATION    = 71.0083
RA_OF_ASC_NODE = 198.5152
ARG_OF_PERICENTER = 303.7758
MEAN_ANOMALY   = 56.2196

EPHEMERIS_TYPE = 0
CLASSIFICATION_TYPE = U
NORAD_CAT_ID   = 22566
ELEMENT_SET_NO = 999
REV_AT_EPOCH   = 70329
BSTAR          = -.99404918E-4
MEAN_MOTION_DOT = -.241E-5
MEAN_MOTION_DDOT = 0

